{"fetched_at":"2026-03-29T02:12:04Z","count":15717,"tles":[{"name":"STARLINK-35747","line1":"1 66207U 25244B   26087.56403172  .00030799  00000+0  10476-2 0  9996","line2":"2 66207  53.1593 142.5931 0001331  78.2754 281.8396 15.30202830 24541","category":"Starlink"}]}