{
  "norad_id": 66207,
  "name": "STARLINK-35747",
  "history": [
    {
      "epoch": "2026-03-28T13:32:12.339744",
      "apogee_km": 476.1187995982209,
      "perigee_km": 474.2944395266941,
      "latitude_deg": -53.0236998645286,
      "longitude_deg": 134.84704416012391,
      "semi_major_axis_km": 6853.343619562457,
      "eccentricity": 0.0001331,
      "inclination_deg": 53.1593,
      "raan_deg": 142.5931,
      "arg_perigee_deg": 78.2754,
      "mean_anomaly_deg": 281.8396,
      "mean_motion_rev_day": 15.3020283
    }
  ]
}